H1 CPF  1  HTS 2022  3  2 12  5611 larets           NONE
H2  0304206 5557    27944 2022 03 02  0  0  0 2022 03 07  0  0  0   180 1 1  0 0 0
H5  0.0560 
H9 
10 0 59640  23400.00000  0    1773217.968   -1710526.956   -6617729.606
10 0 59640  23580.00000  0    2149012.090   -2900631.798   -6069904.490
10 0 59640  23760.00000  0    2416918.627   -3994019.107   -5300406.899
10 0 59640  23940.00000  0    2570254.857   -4948015.685   -4337191.488
10 0 59640  24120.00000  0    2607533.386   -5724828.049   -3215327.398
10 0 59640  24300.00000  0    2532389.098   -6293083.117   -1975758.562
10 0 59640  24480.00000  0    2353283.159   -6629151.379    -663820.615
10 0 59640  24660.00000  0    2082992.485   -6718177.080     672437.791
10 0 59640  24840.00000  0    1737906.956   -6554751.196    1984055.806
10 0 59640  25020.00000  0    1337172.689   -6143194.671    3223003.915
10 0 59640  25200.00000  0     901723.901   -5497429.385    4343982.530
10 0 59640  25380.00000  0     453258.710   -4640457.599    5306092.494
10 0 59640  25560.00000  0      13210.529   -3603482.708    6074317.502
10 0 59640  25740.00000  0    -398232.484   -2424712.722    6620764.809
10 0 59640  25920.00000  0    -763016.606   -1147913.263    6925624.759
10 0 59640  26100.00000  0   -1065986.857     179225.139    6977842.931
10 0 59640  26280.00000  0   -1295501.242    1506860.160    6775496.016
10 0 59640  26460.00000  0   -1443873.325    2784852.047    6325860.268
10 0 59640  26640.00000  0   -1507630.208    3964641.902    5645174.755
10 0 59640  26820.00000  0   -1487578.550    5001097.948    4758101.007
10 0 59640  27000.00000  0   -1388675.605    5854270.429    3696883.910
10 0 59640  27180.00000  0   -1219708.793    6490983.643    2500222.799
10 0 59640  27360.00000  0    -992798.415    6886195.543    1211881.693
10 0 59640  27540.00000  0    -722734.854    7024051.088    -120923.323
10 0 59640  27720.00000  0    -426185.466    6898568.282   -1449291.050
10 0 59640  27900.00000  0    -120812.894    6513911.982   -2724488.527
10 0 59640  28080.00000  0     175643.868    5884230.328   -3899791.579
10 0 59640  28260.00000  0     446277.829    5033082.459   -4932227.630
10 0 59640  28440.00000  0     675869.050    3992489.105   -5784154.044
10 0 59640  28620.00000  0     851642.425    2801657.612   -6424609.525
10 0 59640  28800.00000  0     963891.274    1505447.342   -6830395.003
10 0 59640  28980.00000  0    1006443.273     152650.704   -6986859.519
10 0 59640  29160.00000  0     976952.576   -1205846.483   -6888386.201
10 0 59640  29340.00000  0     877008.212   -2518964.454   -6538568.659
10 0 59640  29520.00000  0     712058.795   -3737325.611   -5950086.942
10 0 59640  29700.00000  0     491153.886   -4815106.090   -5144285.444
10 0 59640  29880.00000  0     226511.023   -5711775.653   -4150444.451
10 0 59640  30060.00000  0     -67077.026   -6393663.661   -3004763.348
10 0 59640  30240.00000  0    -372972.626   -6835284.155   -1749072.293
10 0 59640  30420.00000  0    -673528.594   -7020355.869    -429309.692
10 0 59640  30600.00000  0    -950988.495   -6942455.502     906183.340
10 0 59640  30780.00000  0   -1188405.981   -6605265.196    2208474.815
10 0 59640  30960.00000  0   -1370534.933   -6022400.130    3429882.845
10 0 59640  31140.00000  0   -1484640.110   -5216820.659    4525760.606
10 0 59640  31320.00000  0   -1521186.313   -4219867.032    5456139.149
10 0 59640  31500.00000  0   -1474376.841   -3069980.288    6187169.954
10 0 59640  31680.00000  0   -1342515.104   -1811166.483    6692319.338
10 0 59640  31860.00000  0   -1128174.577    -491286.059    6953278.579
10 0 59640  32040.00000  0    -838179.258     839767.100    6960584.132
10 0 59640  32220.00000  0    -483391.798    2131937.114    6713937.219
10 0 59640  32400.00000  0     -78310.688    3336870.796    6222219.649
10 0 59640  32580.00000  0     359507.937    4409717.859    5503202.895
10 0 59640  32760.00000  0     810184.807    5310812.388    4582954.082
10 0 59640  32940.00000  0    1252386.182    6007177.864    3494942.996
10 0 59640  33120.00000  0    1664291.658    6473794.364    2278870.149
10 0 59640  33300.00000  0    2024626.767    6694575.901     979231.447
10 0 59640  33480.00000  0    2313699.202    6662981.657    -356332.813
10 0 59640  33660.00000  0    2514388.181    6382230.762   -1678825.127
10 0 59640  33840.00000  0    2613034.258    5865111.738   -2939738.296
10 0 59640  34020.00000  0    2600183.887    5133393.389   -4092884.503
10 0 59640  34200.00000  0    2471146.479    4216863.359   -5096121.248
10 0 59640  34380.00000  0    2226335.295    3152054.163   -5912892.758
10 0 59640  34560.00000  0    1871382.870    1980731.640   -6513534.500
10 0 59640  34740.00000  0    1417029.286     748217.404   -6876302.434
10 0 59640  34920.00000  0     878793.593    -498378.106   -6988106.737
10 0 59640  35100.00000  0     276437.048   -1711950.053   -6844943.694
10 0 59640  35280.00000  0    -366760.040   -2847159.041   -6452018.717
10 0 59640  35460.00000  0   -1024885.856   -3862107.449   -5823572.380
10 0 59640  35640.00000  0   -1670424.354   -4719886.960   -4982400.763
10 0 59640  35820.00000  0   -2275387.992   -5389944.227   -3959079.238
10 0 59640  36000.00000  0   -2812518.098   -5849214.492   -2790895.449
10 0 59640  36180.00000  0   -3256499.446   -6082967.945   -1520517.041
10 0 59640  36360.00000  0   -3585133.442   -6085328.820    -194434.000
10 0 59640  36540.00000  0   -3780407.943   -5859430.764    1138772.003
10 0 59640  36720.00000  0   -3829403.408   -5417192.809    2430253.882
10 0 59640  36900.00000  0   -3724987.029   -4778725.873    3632736.582
10 0 59640  37080.00000  0   -3466259.098   -3971405.694    4702279.397
10 0 59640  37260.00000  0   -3058732.646   -3028664.837    5599889.559
10 0 59640  37440.00000  0   -2514241.775   -1988570.049    6292922.371
10 0 59640  37620.00000  0   -1850588.049    -892261.316    6756228.331
10 0 59640  37800.00000  0   -1090941.212     217686.735    6973020.297
10 0 59640  37980.00000  0    -263022.541    1298911.669    6935434.394
10 0 59640  38160.00000  0     601898.588    2310862.076    6644796.065
10 0 59640  38340.00000  0    1470172.840    3216305.999    6111581.065
10 0 59640  38520.00000  0    2307064.577    3982698.052    5355071.160
10 0 59640  38700.00000  0    3078132.094    4583368.337    4402709.055
10 0 59640  38880.00000  0    3750647.635    4998486.024    3289153.429
10 0 59640  39060.00000  0    4294999.547    5215760.061    2055058.630
10 0 59640  39240.00000  0    4686014.931    5230837.928     745595.785
10 0 59640  39420.00000  0    4904124.987    5047373.640    -591221.857
10 0 59640  39600.00000  0    4936314.835    4676754.623   -1906347.699
10 0 59640  39780.00000  0    4776802.037    4137497.114   -3151553.164
10 0 59640  39960.00000  0    4427410.447    3454349.253   -4281243.040
10 0 59640  40140.00000  0    3897616.876    2657148.203   -5254151.656
10 0 59640  40320.00000  0    3204277.754    1779494.466   -6034847.282
10 0 59640  40500.00000  0    2371053.763     857313.447   -6594991.855
10 0 59640  40680.00000  0    1427563.999     -72625.523   -6914317.635
10 0 59640  40860.00000  0     408314.211    -974170.043   -6981308.649
10 0 59640  41040.00000  0    -648569.331   -1813177.405   -6793579.131
10 0 59640  41220.00000  0   -1702753.830   -2558790.019   -6357945.051
10 0 59640  41400.00000  0   -2713222.579   -3184562.285   -5690194.331
10 0 59640  41580.00000  0   -3639858.314   -3669403.218   -4814555.636
10 0 59640  41760.00000  0   -4445042.446   -3998307.424   -3762871.259
10 0 59640  41940.00000  0   -5095204.656   -4162840.297   -2573480.416
10 0 59640  42120.00000  0   -5562254.617   -4161354.059   -1289843.143
10 0 59640  42300.00000  0   -5824824.495   -3998918.713      41053.496
10 0 59640  42480.00000  0   -5869256.399   -3686967.749    1370445.259
10 0 59640  42660.00000  0   -5690277.510   -3242672.725    2649626.294
10 0 59640  42840.00000  0   -5291319.995   -2688074.828    3831781.002
10 0 59640  43020.00000  0   -4684476.112   -2049026.376    4873726.850
10 0 59640  43200.00000  0   -3890094.019   -1353997.165    5737493.936
10 0 59640  43380.00000  0   -2936048.553    -632814.074    6391681.157
10 0 59640  43560.00000  0   -1856721.813      84611.775    6812558.514
10 0 59640  43740.00000  0    -691734.517     769514.172    6984877.070
10 0 59640  43920.00000  0     515511.211    1395407.081    6902380.137
10 0 59640  44100.00000  0    1719433.739    1939096.748    6568015.324
10 0 59640  44280.00000  0    2873973.741    2381536.652    5993840.904
10 0 59640  44460.00000  0    3934344.737    2708497.806    5200630.162
10 0 59640  44640.00000  0    4858778.678    2911035.963    4217172.517
10 0 59640  44820.00000  0    5610201.117    2985738.525    3079281.829
10 0 59640  45000.00000  0    6157772.460    2934734.248    1828522.604
10 0 59640  45180.00000  0    6478207.410    2765461.756     510694.910
10 0 59640  45360.00000  0    6556810.979    2490205.576    -825870.401
10 0 59640  45540.00000  0    6388160.066    2125414.837   -2132134.276
10 0 59640  45720.00000  0    5976400.307    1690846.369   -3360199.130
10 0 59640  45900.00000  0    5335143.032    1208574.636   -4465112.196
10 0 59640  46080.00000  0    4486962.090     701919.456   -5406534.361
10 0 59640  46260.00000  0    3462529.450     194354.897   -6150201.247
10 0 59640  46440.00000  0    2299444.283    -291547.036   -6669133.742
10 0 59640  46620.00000  0    1040808.981    -735093.176   -6944565.145
10 0 59640  46800.00000  0    -266384.363   -1118328.783   -6966570.501
10 0 59640  46980.00000  0   -1573004.594   -1426747.724   -6734390.170
10 0 59640  47160.00000  0   -2829610.309   -1649833.226   -6256449.003
10 0 59640  47340.00000  0   -3988302.632   -1781413.574   -5550069.837
10 0 59640  47520.00000  0   -5004548.037   -1819824.290   -4640891.817
10 0 59640  47700.00000  0   -5838915.703   -1767870.431   -3561990.609
99
